NORAD_CAT_ID,OBJECT_NAME,OBJECT_TYPE,EPOCH,MEAN_MOTION,ECCENTRICITY,INCLINATION,RA_OF_ASC_NODE,ARG_OF_PERICENTER,MEAN_ANOMALY,BSTAR,MEAN_MOTION_DOT,MEAN_MOTION_DDOT,TLE_LINE0,TLE_LINE1,TLE_LINE2,SEMIMAJOR_AXIS,PERIOD,APOGEE,PERIGEE,DECAYED
56476.0,STARLINK-5545,PAYLOAD,2024-04-24 20:11:57,14.98326955,0.0002437,70.0027,48.7576,233.7997,126.2937,8.6355e-05,9.38e-06,0.0,0 STARLINK-5545,1 56476U 23064AE  24115.84164056  .00000938  00000-0  86355-4 0  9991,2 56476  70.0027  48.7576 0002437 233.7997 126.2937 14.98326955 53661,6950.202,96.107,573.761,570.374,0.0
56476.0,STARLINK-5545,PAYLOAD,2024-04-24 21:48:05,14.98366202,0.0002058,70.0024,48.5906,232.1941,127.9031,-0.00054604,-6.608e-05,0.0,0 STARLINK-5545,1 56476U 23064AE  24115.90839670 -.00006608  00000-0 -54604-3 0  9992,2 56476  70.0024  48.5906 0002058 232.1941 127.9031 14.98366202 53318,6950.081,96.105,573.376,570.516,0.0
56476.0,STARLINK-5545,PAYLOAD,2024-04-25 04:12:37,14.98360911,0.0002201,70.0023,47.917,234.4399,125.6555,-0.0005372,-6.502e-05,0.0,0 STARLINK-5545,1 56476U 23064AE  24116.17543479 -.00006502  00000-0 -53720-3 0  9992,2 56476  70.0023  47.9170 0002201 234.4399 125.6555 14.98360911 53716,6950.097,96.105,573.492,570.433,0.0
56476.0,STARLINK-5545,PAYLOAD,2024-04-25 05:48:46,14.98327748,0.0002451,70.0025,47.7475,251.5105,108.5788,5.5455e-05,5.69e-06,0.0,0 STARLINK-5545,1 56476U 23064AE  24116.24220190  .00000569  00000-0  55455-4 0  9995,2 56476  70.0025  47.7475 0002451 251.5105 108.5788 14.98327748 53726,6950.2,96.107,573.768,570.361,0.0
56476.0,STARLINK-5545,PAYLOAD,2024-04-25 21:50:06,14.9836208,0.0002222,70.0025,46.0642,259.4509,100.64,-0.00051307,-6.214e-05,0.0,0 STARLINK-5545,1 56476U 23064AE  24116.90979788 -.00006214  00000-0 -51307-3 0  9998,2 56476  70.0025  46.0642 0002222 259.4509 100.6400 14.98362080 53468,6950.094,96.105,573.503,570.414,0.0
56476.0,STARLINK-5545,PAYLOAD,2024-04-26 12:15:18,14.98333821,0.0002576,70.0015,44.5449,271.9166,88.1698,7.6736e-05,8.23e-06,0.0,0 STARLINK-5545,1 56476U 23064AE  24117.51063559  .00000823  00000-0  76736-4 0  9998,2 56476  70.0015  44.5449 0002576 271.9166  88.1698 14.98333821 53915,6950.181,96.107,573.836,570.256,0.0
56476.0,STARLINK-5545,PAYLOAD,2024-04-26 20:15:59,14.98315295,0.0002785,70.0023,43.7082,263.9603,96.1239,0.00031724,3.693e-05,0.0,0 STARLINK-5545,1 56476U 23064AE  24117.84443771  .00003693  00000-0  31724-3 0  9997,2 56476  70.0023  43.7082 0002785 263.9603  96.1239 14.98315295 53967,6950.238,96.108,574.039,570.168,0.0
56476.0,STARLINK-5545,PAYLOAD,2024-04-26 21:52:07,14.98331251,0.0002652,70.0022,43.5398,263.4763,96.6094,4.1164e-05,3.98e-06,0.0,0 STARLINK-5545,1 56476U 23064AE  24117.91119714  .00000398  00000-0  41164-4 0  9991,2 56476  70.0022  43.5398 0002652 263.4763  96.6094 14.98331251 53615,6950.189,96.107,573.897,570.211,0.0
56476.0,STARLINK-5545,PAYLOAD,2024-04-27 04:16:39,14.98338415,0.0002619,70.0019,42.8654,267.0089,93.077,9.9974e-05,1.1e-05,0.0,0 STARLINK-5545,1 56476U 23064AE  24118.17823022  .00001100  00000-0  99974-4 0  9998,2 56476  70.0019  42.8654 0002619 267.0089  93.0770 14.98338415 54018,6950.167,96.106,573.852,570.212,0.0
56476.0,STARLINK-5545,PAYLOAD,2024-04-27 12:17:20,14.98325064,0.0001306,70.0024,42.0211,282.1419,77.9594,-6.1823e-05,-8.3e-06,0.0,0 STARLINK-5545,1 56476U 23064AE  24118.51204673 -.00000830  00000-0 -61823-4 0  9994,2 56476  70.0024  42.0211 0001306 282.1419  77.9594 14.98325064 54068,6950.208,96.107,572.981,571.165,0.0
56476.0,STARLINK-5545,PAYLOAD,2024-04-27 21:54:09,14.98322731,0.0002563,70.0012,41.0111,275.2514,84.8353,-0.00013476,-1.7e-05,0.0,0 STARLINK-5545,1 56476U 23064AE  24118.91260704 -.00001700  00000-0 -13476-3 0  9992,2 56476  70.0012  41.0111 0002563 275.2514  84.8353 14.98322731 53762,6950.215,96.107,573.862,570.299,0.0
56476.0,STARLINK-5545,PAYLOAD,2024-04-28 12:19:21,14.98328774,0.0003006,70.0007,39.4967,271.7251,88.3564,-6.5939e-05,-8.8e-06,0.0,0 STARLINK-5545,1 56476U 23064AE  24119.51344187 -.00000880  00000-0 -65939-4 0  9997,2 56476  70.0007  39.4967 0003006 271.7251  88.3564 14.98328774 54215,6950.197,96.107,574.151,569.972,0.0
56476.0,STARLINK-5545,PAYLOAD,2024-04-28 21:56:09,14.98326625,0.0003098,70.0006,38.4871,271.0925,88.9879,4.877e-05,4.89e-06,0.0,0 STARLINK-5545,1 56476U 23064AE  24119.91400023  .00000489  00000-0  48770-4 0  9990,2 56476  70.0006  38.4871 0003098 271.0925  88.9879 14.98326625 53913,6950.203,96.107,574.222,569.915,0.0
56476.0,STARLINK-5545,PAYLOAD,2024-04-29 04:20:41,14.98336881,0.000301,70.0008,37.8137,270.4217,89.6597,1.9975e-05,1.45e-06,0.0,0 STARLINK-5545,1 56476U 23064AE  24120.18103451  .00000145  00000-0  19975-4 0  9990,2 56476  70.0008  37.8137 0003010 270.4217  89.6597 14.98336881 54319,6950.172,96.107,574.129,569.945,0.0
56476.0,STARLINK-5545,PAYLOAD,2024-04-29 12:21:21,14.98340989,0.0003022,70.0009,36.9724,274.1444,85.937,-6.6652e-05,-8.88e-06,0.0,0 STARLINK-5545,1 56476U 23064AE  24120.51483302 -.00000888  00000-0 -66652-4 0  9993,2 56476  70.0009  36.9724 0003022 274.1444  85.9370 14.98340989 54006,6950.159,96.106,574.124,569.924,0.0
56476.0,STARLINK-5545,PAYLOAD,2024-04-29 20:22:02,14.98323131,0.0003106,70.001,36.1309,272.7103,87.37,0.00019408,2.223e-05,0.0,0 STARLINK-5545,1 56476U 23064AE  24120.84863763  .00002223  00000-0  19408-3 0  9991,2 56476  70.0010  36.1309 0003106 272.7103  87.3700 14.98323131 54416,6950.214,96.107,574.238,569.92,0.0
56476.0,STARLINK-5545,PAYLOAD,2024-04-29 21:58:10,14.98323302,0.0003109,70.001,35.9626,272.6873,87.393,0.00019176,2.195e-05,0.0,0 STARLINK-5545,1 56476U 23064AE  24120.91539785  .00002195  00000-0  19176-3 0  9993,2 56476  70.0010  35.9626 0003109 272.6873  87.3930 14.98323302 54067,6950.214,96.107,574.239,569.918,0.0
56476.0,STARLINK-5545,PAYLOAD,2024-04-30 04:22:42,14.98333731,0.0003069,70.0011,35.289,271.8062,88.2745,0.0001786,2.039e-05,0.0,0 STARLINK-5545,1 56476U 23064AE  24121.18243165  .00002039  00000-0  17860-3 0  9992,2 56476  70.0011  35.2890 0003069 271.8062  88.2745 14.98333731 54465,6950.181,96.107,574.179,569.913,0.0
56476.0,STARLINK-5545,PAYLOAD,2024-04-30 20:24:03,14.98326237,0.0002922,70.0016,33.606,272.489,87.5935,7.8088e-06,0.0,0.0,0 STARLINK-5545,1 56476U 23064AE  24121.85004103  .00000000  00000-0  78088-5 0  9990,2 56476  70.0016  33.6060 0002922 272.4890  87.5935 14.98326237 54561,6950.205,96.107,574.1,570.039,0.0
56476.0,STARLINK-5545,PAYLOAD,2024-04-30 22:00:11,14.98324126,0.0002938,70.0017,33.4377,272.1759,87.9063,4.248e-05,4.14e-06,0.0,0 STARLINK-5545,1 56476U 23064AE  24121.91680161  .00000414  00000-0  42480-4 0  9996,2 56476  70.0017  33.4377 0002938 272.1759  87.9063 14.98324126 54212,6950.211,96.107,574.118,570.034,0.0
56476.0,STARLINK-5545,PAYLOAD,2024-05-01 10:49:15,14.98334601,0.0002906,70.0016,32.0914,272.3035,87.7792,9.5148e-06,2.1e-07,0.0,0 STARLINK-5545,1 56476U 23064AE  24122.45087427  .00000021  00000-0  95148-5 0  9996,2 56476  70.0016  32.0914 0002906 272.3035  87.7792 14.98334601 54651,6950.179,96.107,574.063,570.024,0.0
56476.0,STARLINK-5545,PAYLOAD,2024-05-02 10:51:15,14.98341877,0.0003249,70.0005,29.5658,272.124,87.9547,-0.00011155,-1.424e-05,0.0,0 STARLINK-5545,1 56476U 23064AE  24123.45226679 -.00001424  00000-0 -11155-3 0  9995,2 56476  70.0005  29.5658 0003249 272.1240  87.9547 14.98341877 54802,6950.156,96.106,574.279,569.763,0.0
56476.0,STARLINK-5545,PAYLOAD,2024-05-02 20:28:04,14.98325272,0.0002928,70.0018,28.5572,273.1163,86.9661,1.4124e-05,7.6e-07,0.0,0 STARLINK-5545,1 56476U 23064AE  24123.85283544  .00000076  00000-0  14124-4 0  9993,2 56476  70.0018  28.5572 0002928 273.1163  86.9661 14.98325272 54861,6950.208,96.107,574.108,570.037,0.0
56476.0,STARLINK-5545,PAYLOAD,2024-05-03 02:52:36,14.98332965,0.0002976,70.0012,27.8852,271.3675,88.7143,5.2242e-05,5.3e-06,0.0,0 STARLINK-5545,1 56476U 23064AE  24124.11986911  .00000530  00000-0  52242-4 0  9999,2 56476  70.0012  27.8852 0002976 271.3675  88.7143 14.98332965 54906,6950.184,96.107,574.117,569.98,0.0
56476.0,STARLINK-5545,PAYLOAD,2024-05-03 10:53:17,14.98325809,0.0003523,70.0007,27.0418,268.4244,91.6511,-8.7466e-05,-1.136e-05,0.0,0 STARLINK-5545,1 56476U 23064AE  24124.45367524 -.00001136  00000-0 -87466-4 0  9990,2 56476  70.0007  27.0418 0003523 268.4244  91.6511 14.98325809 54954,6950.206,96.107,574.519,569.622,0.0
56476.0,STARLINK-5545,PAYLOAD,2024-05-03 20:30:07,14.98315914,0.0003044,70.0009,26.0316,267.9518,92.1292,-0.00019911,-2.467e-05,0.0,0 STARLINK-5545,1 56476U 23064AE  24124.85424821 -.00002467  00000-0 -19911-3 0  9995,2 56476  70.0009  26.0316 0003044 267.9518  92.1292 14.98315914 55014,6950.236,96.108,574.217,569.986,0.0
56476.0,STARLINK-5545,PAYLOAD,2024-05-03 22:06:15,14.98315666,0.0003025,70.001,25.8637,267.2141,92.8672,-0.0001995,-2.472e-05,0.0,0 STARLINK-5545,1 56476U 23064AE  24124.92100907 -.00002472  00000-0 -19950-3 0  9998,2 56476  70.0010  25.8637 0003025 267.2141  92.8672 14.98315666 54666,6950.237,96.108,574.205,570.0,0.0
56476.0,STARLINK-5545,PAYLOAD,2024-05-04 10:55:19,14.98324199,0.0003117,70.0007,24.5172,267.6899,92.3904,-0.00012799,-1.62e-05,0.0,0 STARLINK-5545,1 56476U 23064AE  24125.45508503 -.00001620  00000-0 -12799-3 0  9999,2 56476  70.0007  24.5172 0003117 267.6899  92.3904 14.98324199 55102,6950.211,96.107,574.242,569.909,0.0
56476.0,STARLINK-5545,PAYLOAD,2024-05-05 02:56:39,14.98330283,0.000308,70.0007,22.8336,264.4445,95.6362,1.0729e-05,3.5e-07,0.0,0 STARLINK-5545,1 56476U 23064AE  24126.12268076  .00000035  00000-0  10729-4 0  9991,2 56476  70.0007  22.8336 0003080 264.4445  95.6362 14.98330283 55202,6950.192,96.107,574.198,569.916,0.0
56476.0,STARLINK-5545,PAYLOAD,2024-05-05 22:10:16,14.98322642,0.0003144,70.0006,20.8138,265.9612,94.1188,0.00020112,2.307e-05,0.0,0 STARLINK-5545,1 56476U 23064AE  24126.92380315  .00002307  00000-0  20112-3 0  9990,2 56476  70.0006  20.8138 0003144 265.9612  94.1188 14.98322642 54964,6950.216,96.107,574.266,569.895,0.0
